[{"OBJECT_NAME":"STARLINK-30353","OBJECT_ID":"2023-161S","EPOCH":"2026-03-09T12:37:38.008704","MEAN_MOTION":15.30203117,"ECCENTRICITY":0.00012489,"INCLINATION":53.1611,"RA_OF_ASC_NODE":166.4997,"ARG_OF_PERICENTER":99.4709,"MEAN_ANOMALY":260.6433,"EPHEMERIS_TYPE":0,"CLASSIFICATION_TYPE":"U","NORAD_CAT_ID":58113,"ELEMENT_SET_NO":999,"REV_AT_EPOCH":13439,"BSTAR":-9.4409553e-5,"MEAN_MOTION_DOT":-3.154e-5,"MEAN_MOTION_DDOT":0},{"OBJECT_NAME":"PEGASUS DEB","OBJECT_ID":"1994-029AES","EPOCH":"2026-03-06T17:32:52.876320","MEAN_MOTION":15.2736598,"ECCENTRICITY":0.00781089,"INCLINATION":81.9406,"RA_OF_ASC_NODE":336.1125,"ARG_OF_PERICENTER":102.4632,"MEAN_ANOMALY":258.5359,"EPHEMERIS_TYPE":0,"CLASSIFICATION_TYPE":"U","NORAD_CAT_ID":39307,"ELEMENT_SET_NO":999,"REV_AT_EPOCH":76792,"BSTAR":0.0021826707,"MEAN_MOTION_DOT":0.00064449,"MEAN_MOTION_DDOT":0}]
